0 RADUGA 14
1 14725U 84016A   13282.73352413  .00000000  00000-0  10000-3 0  3495
2 14725 014.6624 355.0672 0005105 101.5838 258.4869 01.00294907 71630
0 RADUGA 14
1 14725U 84016A   13283.07675890 -.00000100  00000-0  00000+0 0  3475
2 14725 014.6627 355.0646 0005179 104.8942 019.1133 01.00298909 71639
0 RADUGA 14
1 14725U 84016A   13285.74096972 -.00000109  00000-0  00000+0 0  3489
2 14725 014.6629 355.0373 0004956 104.7627 261.2581 01.00299348 71667
0 RADUGA 14
1 14725U 84016A   13288.01584068 -.00000114  00000-0  00000+0 0  3497
2 14725 014.6630 355.0138 0004802 103.6747 003.7783 01.00299647 71686
0 RADUGA 14
1 14725U 84016A   13290.03594971 -.00000116  00000-0  00000+0 0  3500
2 14725 014.6631 354.9930 0004722 102.2373 014.6598 01.00299817 71703
0 RADUGA 14
1 14725U 84016A   13293.03105766 -.00000115  00000-0  00000+0 0  3513
2 14725 014.6633 354.9621 0004715 099.9963 018.4153 01.00299871 71733
0 RADUGA 14
1 14725U 84016A   13295.11754740 -.00000113  00000-0  00000+0 0  3525
2 14725 014.6634 354.9409 0004770 098.9499 052.8830 01.00299745 71758
